{"type": "FeatureCollection", "features": [{"type": "Feature", "properties": {"name": "Huyện Củ Chi", "ward_count": 7}, "geometry": {"type": "Polygon", "coordinates": [[[106.5815, 10.9293], [106.5816, 10.9261], [106.5825, 10.9251], [106.5842, 10.9204], [106.5841, 10.9196], [106.5797, 10.92], [106.5741, 10.9198], [106.567, 10.9193], [106.5641, 10.9189], [106.563, 10.9182], [106.561, 10.9171], [106.5469, 10.9163], [106.5387, 10.916], [106.5369, 10.916], [106.5197, 10.9181], [106.5088, 10.9195], [106.4956, 10.9209], [106.4873, 10.925], [106.4648, 10.9363], [106.4537, 10.9418], [106.44, 10.9521], [106.4384, 10.9534], [106.4296, 10.9601], [106.426, 10.963], [106.4117, 10.9736], [106.4088, 10.9735], [106.4015, 10.9726], [106.3806, 10.9704], [106.3768, 10.97], [106.3735, 10.9695], [106.3727, 10.9703], [106.3697, 10.9742], [106.3567, 10.9916], [106.3582, 10.9924], [106.3579, 10.9931], [106.3603, 10.9947], [106.36, 10.9953], [106.3621, 10.9963], [106.3626, 10.9971], [106.3635, 10.9972], [106.367, 10.9987], [106.3714, 10.9993], [106.3769, 10.9999], [106.3772, 11.0004], [106.3785, 11.0001], [106.3807, 10.9984], [106.3851, 10.9993], [106.3862, 10.9992], [106.3895, 10.9996], [106.3913, 10.9997], [106.3928, 11.0004], [106.4026, 11.0032], [106.4033, 11.0036], [106.4052, 11.0037], [106.4056, 11.0052], [106.4063, 11.0062], [106.4104, 11.0074], [106.4128, 11.0089], [106.4113, 11.013], [106.4101, 11.0135], [106.409, 11.0148], [106.4089, 11.0163], [106.4095, 11.018], [106.409, 11.0192], [106.4089, 11.0225], [106.4096, 11.0233], [106.4094, 11.0239], [106.4106, 11.0261], [106.4114, 11.0292], [106.4121, 11.0303], [106.4134, 11.0314], [106.4143, 11.0331], [106.4156, 11.0337], [106.417, 11.0348], [106.4183, 11.0354], [106.4187, 11.0361], [106.4201, 11.0362], [106.4204, 11.0376], [106.4213, 11.0395], [106.421, 11.0397], [106.4222, 11.0415], [106.4216, 11.042], [106.4227, 11.0428], [106.4229, 11.0436], [106.4222, 11.0445], [106.4233, 11.0454], [106.4226, 11.0466], [106.4247, 11.0473], [106.4225, 11.0493], [106.4203, 11.052], [106.4213, 11.0553], [106.4211, 11.0584], [106.4222, 11.0591], [106.4207, 11.0611], [106.4216, 11.0619], [106.4202, 11.0633], [106.4215, 11.0652], [106.4228, 11.0661], [106.4257, 11.0666], [106.4252, 11.0686], [106.4257, 11.0702], [106.4265, 11.0715], [106.4274, 11.074], [106.4274, 11.0748], [106.426, 11.078], [106.4258, 11.0811], [106.4265, 11.0817], [106.4263, 11.0882], [106.426, 11.0916], [106.4272, 11.0919], [106.4303, 11.0919], [106.4308, 11.0921], [106.4308, 11.0936], [106.4315, 11.0983], [106.4322, 11.0983], [106.4331, 11.1003], [106.4338, 11.1002], [106.4374, 11.1099], [106.4374, 11.1116], [106.4404, 11.1148], [106.4414, 11.1147], [106.4425, 11.1159], [106.443, 11.1189], [106.4436, 11.1202], [106.444, 11.1226], [106.4448, 11.1251], [106.4447, 11.1263], [106.446, 11.1276], [106.447, 11.1297], [106.4484, 11.1308], [106.4478, 11.1328], [106.4478, 11.136], [106.4492, 11.136], [106.4513, 11.1363], [106.4524, 11.137], [106.4561, 11.1408], [106.4571, 11.1436], [106.4579, 11.1451], [106.4582, 11.1476], [106.4581, 11.1516], [106.4575, 11.1529], [106.4563, 11.1533], [106.4541, 11.1518], [106.4531, 11.1515], [106.4519, 11.1518], [106.4515, 11.1529], [106.4518, 11.1562], [106.4531, 11.1585], [106.4532, 11.1587], [106.4552, 11.16], [106.4565, 11.1602], [106.4588, 11.1586], [106.4613, 11.1589], [106.4629, 11.1599], [106.4641, 11.1597], [106.4657, 11.1576], [106.4677, 11.1562], [106.4702, 11.1553], [106.4711, 11.1539], [106.4694, 11.1506], [106.4674, 11.1484], [106.4676, 11.1476], [106.4695, 11.1462], [106.472, 11.1434], [106.4784, 11.1423], [106.4797, 11.1422], [106.4824, 11.1424], [106.4861, 11.1439], [106.4894, 11.1446], [106.493, 11.1441], [106.4962, 11.143], [106.498, 11.1421], [106.4998, 11.1409], [106.5023, 11.1403], [106.5056, 11.1418], [106.5059, 11.1419], [106.5064, 11.142], [106.5065, 11.1421], [106.5076, 11.1419], [106.5089, 11.1387], [106.5112, 11.1359], [106.512, 11.1341], [106.5133, 11.1303], [106.5144, 11.1277], [106.516, 11.1255], [106.5175, 11.1243], [106.5212, 11.122], [106.5228, 11.1215], [106.5259, 11.1215], [106.5268, 11.1207], [106.5269, 11.118], [106.5278, 11.1152], [106.5269, 11.1096], [106.5267, 11.1075], [106.5262, 11.1056], [106.5245, 11.104], [106.5229, 11.1034], [106.5203, 11.1029], [106.5176, 11.1022], [106.5165, 11.1016], [106.5162, 11.1007], [106.5168, 11.0987], [106.5216, 11.0913], [106.5228, 11.0899], [106.5241, 11.0899], [106.5255, 11.0904], [106.5272, 11.0916], [106.5296, 11.0923], [106.531, 11.0924], [106.5329, 11.0916], [106.5338, 11.0899], [106.5334, 11.0879], [106.5313, 11.0852], [106.5296, 11.0838], [106.5292, 11.0834], [106.5268, 11.0809], [106.5258, 11.0793], [106.5242, 11.0757], [106.5239, 11.0738], [106.5244, 11.0714], [106.5253, 11.0695], [106.5259, 11.0687], [106.5286, 11.067], [106.53, 11.0649], [106.5314, 11.0618], [106.5325, 11.0597], [106.5335, 11.0583], [106.536, 11.0565], [106.5376, 11.0558], [106.5419, 11.0542], [106.5422, 11.0541], [106.5442, 11.0534], [106.5461, 11.052], [106.5477, 11.0499], [106.5484, 11.0476], [106.5499, 11.0463], [106.5519, 11.0457], [106.556, 11.0457], [106.5561, 11.0457], [106.5587, 11.0455], [106.5636, 11.0449], [106.5668, 11.0449], [106.5678, 11.0456], [106.5685, 11.0473], [106.5686, 11.0493], [106.5691, 11.051], [106.5711, 11.0538], [106.5728, 11.0543], [106.5741, 11.0534], [106.5754, 11.0517], [106.5785, 11.049], [106.5799, 11.0473], [106.5806, 11.0452], [106.5809, 11.0425], [106.5817, 11.0399], [106.5827, 11.0382], [106.584, 11.0373], [106.5861, 11.0366], [106.5889, 11.0362], [106.5911, 11.037], [106.5916, 11.0383], [106.592, 11.0411], [106.5927, 11.043], [106.5937, 11.0441], [106.5958, 11.0455], [106.5978, 11.0458], [106.6002, 11.0447], [106.6029, 11.0411], [106.6034, 11.0397], [106.6027, 11.0386], [106.5988, 11.0338], [106.5959, 11.0307], [106.5952, 11.028], [106.5951, 11.0257], [106.5954, 11.0233], [106.5963, 11.0202], [106.5973, 11.0174], [106.5981, 11.0157], [106.5999, 11.0143], [106.6035, 11.0134], [106.6079, 11.0119], [106.6102, 11.0116], [106.6122, 11.0117], [106.6159, 11.0115], [106.6176, 11.0109], [106.6189, 11.0098], [106.6204, 11.0074], [106.6212, 11.0043], [106.6211, 11.0023], [106.6201, 10.9995], [106.6166, 10.9937], [106.616, 10.9919], [106.616, 10.9918], [106.616, 10.9905], [106.6166, 10.9887], [106.6178, 10.9874], [106.6213, 10.9855], [106.6237, 10.9829], [106.625, 10.9812], [106.6271, 10.9795], [106.6305, 10.9787], [106.6306, 10.9787], [106.6357, 10.9776], [106.6369, 10.9775], [106.6386, 10.978], [106.6412, 10.9799], [106.6426, 10.9807], [106.6451, 10.9812], [106.647, 10.9811], [106.6483, 10.9804], [106.649, 10.9789], [106.6491, 10.9788], [106.6494, 10.9778], [106.6494, 10.9777], [106.6498, 10.9764], [106.6503, 10.974], [106.6499, 10.972], [106.6492, 10.9705], [106.6488, 10.9679], [106.6488, 10.965], [106.649, 10.9635], [106.6502, 10.9598], [106.6502, 10.9597], [106.6512, 10.957], [106.6519, 10.9543], [106.652, 10.9542], [106.6523, 10.9508], [106.6521, 10.9462], [106.6513, 10.9422], [106.65, 10.9381], [106.65, 10.9363], [106.6504, 10.9338], [106.6513, 10.9317], [106.6522, 10.9303], [106.6538, 10.9286], [106.6574, 10.9258], [106.6563, 10.9247], [106.6561, 10.9228], [106.6553, 10.9214], [106.6537, 10.9197], [106.6531, 10.9195], [106.6511, 10.92], [106.6484, 10.9195], [106.646, 10.9198], [106.6453, 10.9196], [106.6451, 10.9196], [106.6428, 10.9178], [106.6381, 10.9161], [106.6353, 10.9162], [106.6314, 10.9162], [106.6293, 10.916], [106.6271, 10.9156], [106.6264, 10.9155], [106.6248, 10.9152], [106.6246, 10.9151], [106.622, 10.9144], [106.6193, 10.915], [106.6164, 10.9154], [106.6057, 10.9171], [106.6004, 10.9178], [106.6005, 10.9203], [106.6012, 10.9233], [106.6002, 10.9234], [106.5926, 10.9258], [106.5873, 10.9276], [106.5837, 10.9287], [106.5815, 10.9293]]]}}, {"type": "Feature", "properties": {"name": "Quận 6", "ward_count": 4}, "geometry": {"type": "Polygon", "coordinates": [[[106.655, 10.7461], [106.6462, 10.741], [106.6352, 10.7342], [106.6344, 10.7335], [106.6317, 10.7322], [106.6303, 10.7313], [106.6277, 10.73], [106.6202, 10.7266], [106.6212, 10.7347], [106.6223, 10.739], [106.6218, 10.7414], [106.6231, 10.7451], [106.6238, 10.7457], [106.6242, 10.7539], [106.6244, 10.756], [106.6253, 10.7575], [106.6241, 10.7625], [106.6247, 10.7608], [106.629, 10.7603], [106.6305, 10.7598], [106.632, 10.7589], [106.6337, 10.7582], [106.6342, 10.759], [106.6353, 10.7578], [106.6374, 10.7554], [106.6376, 10.7547], [106.6392, 10.7546], [106.6507, 10.7534], [106.6505, 10.7514], [106.6533, 10.7516], [106.6539, 10.7486], [106.655, 10.7461]]]}}, {"type": "Feature", "properties": {"name": "Quận Phú Nhuận", "ward_count": 3}, "geometry": {"type": "Polygon", "coordinates": [[[106.6816, 10.7911], [106.681, 10.7914], [106.6793, 10.791], [106.6763, 10.7905], [106.671, 10.7893], [106.6706, 10.788], [106.6682, 10.7888], [106.6667, 10.7896], [106.666, 10.7908], [106.6682, 10.7938], [106.6685, 10.7982], [106.6691, 10.7989], [106.6677, 10.8002], [106.6688, 10.8021], [106.6692, 10.8042], [106.6695, 10.8067], [106.67, 10.8077], [106.671, 10.8078], [106.6707, 10.8098], [106.6716, 10.8094], [106.6724, 10.8107], [106.6721, 10.8123], [106.6728, 10.8141], [106.676, 10.8112], [106.6769, 10.8122], [106.6782, 10.8113], [106.6786, 10.8121], [106.6804, 10.8119], [106.6807, 10.811], [106.6821, 10.8108], [106.684, 10.81], [106.6842, 10.8089], [106.6839, 10.8071], [106.6844, 10.8064], [106.6871, 10.8053], [106.687, 10.8062], [106.6885, 10.8056], [106.6879, 10.8037], [106.6909, 10.8033], [106.6907, 10.8024], [106.6921, 10.8023], [106.6925, 10.8005], [106.6918, 10.8003], [106.692, 10.7961], [106.6916, 10.7955], [106.691, 10.7958], [106.6892, 10.7956], [106.6877, 10.7949], [106.6868, 10.7952], [106.6862, 10.7966], [106.6854, 10.7969], [106.6848, 10.7959], [106.6851, 10.7945], [106.6862, 10.7934], [106.6861, 10.7925], [106.6855, 10.7922], [106.6832, 10.7923], [106.682, 10.7916], [106.6816, 10.7911]]]}}, {"type": "Feature", "properties": {"name": "Quận Tân Phú", "ward_count": 5}, "geometry": {"type": "Polygon", "coordinates": [[[106.632, 10.7589], [106.6305, 10.7598], [106.629, 10.7603], [106.6247, 10.7608], [106.6241, 10.7625], [106.6237, 10.7642], [106.622, 10.7713], [106.6216, 10.7737], [106.6213, 10.7771], [106.6201, 10.7805], [106.6188, 10.7846], [106.6156, 10.7927], [106.6142, 10.7957], [106.6137, 10.7967], [106.6099, 10.8032], [106.615, 10.8093], [106.61, 10.8117], [106.6076, 10.8131], [106.6112, 10.8166], [106.6137, 10.8183], [106.616, 10.8195], [106.6167, 10.8198], [106.6182, 10.8195], [106.6196, 10.8186], [106.6212, 10.8188], [106.6234, 10.8196], [106.6235, 10.8196], [106.6238, 10.8199], [106.6279, 10.8247], [106.6295, 10.8232], [106.6303, 10.8217], [106.6347, 10.8075], [106.6358, 10.8038], [106.6367, 10.8016], [106.6379, 10.797], [106.6392, 10.7931], [106.6412, 10.7871], [106.6416, 10.786], [106.6433, 10.7814], [106.6454, 10.7783], [106.6477, 10.7752], [106.6455, 10.7752], [106.6443, 10.775], [106.6421, 10.7721], [106.6416, 10.7725], [106.6376, 10.769], [106.6356, 10.7696], [106.6357, 10.7667], [106.6357, 10.7628], [106.6352, 10.7604], [106.6342, 10.759], [106.6337, 10.7582], [106.632, 10.7589]]]}}, {"type": "Feature", "properties": {"name": "Quận 11", "ward_count": 3}, "geometry": {"type": "Polygon", "coordinates": [[[106.6374, 10.7554], [106.6353, 10.7578], [106.6342, 10.759], [106.6352, 10.7604], [106.6357, 10.7628], [106.6357, 10.7667], [106.6356, 10.7696], [106.6376, 10.769], [106.6392, 10.7684], [106.6412, 10.7671], [106.6464, 10.7653], [106.6521, 10.769], [106.6524, 10.7691], [106.6533, 10.7758], [106.656, 10.7782], [106.66, 10.7638], [106.6615, 10.7584], [106.6511, 10.7563], [106.6507, 10.7534], [106.6392, 10.7546], [106.6376, 10.7547], [106.6374, 10.7554]]]}}, {"type": "Feature", "properties": {"name": "Quận 7", "ward_count": 4}, "geometry": {"type": "Polygon", "coordinates": [[[106.7353, 10.7029], [106.7346, 10.7014], [106.7342, 10.6993], [106.7329, 10.698], [106.7311, 10.6978], [106.7283, 10.6985], [106.7267, 10.6993], [106.7262, 10.7002], [106.7259, 10.7021], [106.725, 10.7046], [106.7248, 10.7058], [106.7255, 10.7085], [106.7256, 10.7102], [106.7252, 10.7118], [106.7237, 10.7137], [106.7232, 10.7148], [106.7235, 10.7166], [106.7246, 10.7183], [106.725, 10.7197], [106.7247, 10.7208], [106.7238, 10.7217], [106.7224, 10.7221], [106.7209, 10.7222], [106.7198, 10.7214], [106.7192, 10.7199], [106.7182, 10.7191], [106.7166, 10.7192], [106.7128, 10.7205], [106.7112, 10.7205], [106.7089, 10.7198], [106.7079, 10.7205], [106.7073, 10.7239], [106.7063, 10.7249], [106.7048, 10.7253], [106.7031, 10.7252], [106.701, 10.7246], [106.6984, 10.7242], [106.6939, 10.7252], [106.6902, 10.7255], [106.6903, 10.73], [106.6909, 10.7312], [106.6932, 10.7329], [106.6945, 10.7349], [106.695, 10.7361], [106.6941, 10.7385], [106.6921, 10.7414], [106.6918, 10.7424], [106.6928, 10.7441], [106.6927, 10.7464], [106.6919, 10.748], [106.6904, 10.7499], [106.6903, 10.752], [106.6927, 10.7524], [106.7031, 10.7523], [106.7051, 10.7524], [106.7099, 10.7524], [106.7158, 10.7525], [106.7183, 10.7531], [106.7202, 10.755], [106.7211, 10.7566], [106.7221, 10.7593], [106.7262, 10.7592], [106.7279, 10.7594], [106.7304, 10.76], [106.7318, 10.7608], [106.7333, 10.7629], [106.7338, 10.7642], [106.7341, 10.766], [106.7341, 10.7679], [106.7348, 10.7719], [106.7354, 10.7746], [106.7359, 10.7758], [106.7378, 10.777], [106.7403, 10.7776], [106.7422, 10.7772], [106.744, 10.7763], [106.7452, 10.7755], [106.7475, 10.7736], [106.7518, 10.7694], [106.7526, 10.7666], [106.753, 10.7641], [106.7524, 10.7611], [106.7518, 10.7599], [106.7466, 10.7537], [106.7453, 10.7512], [106.7445, 10.749], [106.7442, 10.7475], [106.7447, 10.7451], [106.7459, 10.7433], [106.7467, 10.7427], [106.7492, 10.7418], [106.7518, 10.7419], [106.7571, 10.7439], [106.7588, 10.7445], [106.7625, 10.7445], [106.7697, 10.7442], [106.7669, 10.7406], [106.7634, 10.7365], [106.7605, 10.7327], [106.7581, 10.729], [106.7563, 10.7259], [106.7536, 10.7203], [106.7518, 10.7167], [106.7514, 10.7136], [106.7513, 10.7114], [106.7514, 10.7085], [106.7522, 10.705], [106.7458, 10.7033], [106.7445, 10.7032], [106.7378, 10.7036], [106.7366, 10.7035], [106.7353, 10.7029]]]}}, {"type": "Feature", "properties": {"name": "Quận 12", "ward_count": 5}, "geometry": {"type": "Polygon", "coordinates": [[[106.6045, 10.8302], [106.6079, 10.8358], [106.6088, 10.8369], [106.6153, 10.8427], [106.6072, 10.8553], [106.6109, 10.8609], [106.6155, 10.8674], [106.6149, 10.8703], [106.6194, 10.8712], [106.6248, 10.8772], [106.6258, 10.8782], [106.6279, 10.8812], [106.6254, 10.883], [106.6254, 10.8836], [106.6287, 10.8858], [106.6294, 10.8868], [106.6313, 10.8912], [106.6319, 10.8918], [106.6393, 10.8918], [106.6426, 10.8924], [106.6434, 10.8939], [106.646, 10.8942], [106.6469, 10.8948], [106.6495, 10.8953], [106.6522, 10.8949], [106.6526, 10.8931], [106.6532, 10.8918], [106.6563, 10.8922], [106.6564, 10.8922], [106.6634, 10.893], [106.6656, 10.8921], [106.6689, 10.8916], [106.6693, 10.8939], [106.6699, 10.8945], [106.6706, 10.8979], [106.6707, 10.9012], [106.6735, 10.9017], [106.6752, 10.9023], [106.6792, 10.9035], [106.6797, 10.9035], [106.6816, 10.8985], [106.6858, 10.9001], [106.688, 10.9013], [106.6888, 10.9017], [106.6905, 10.9033], [106.6927, 10.9043], [106.6941, 10.8989], [106.6944, 10.8971], [106.6943, 10.8948], [106.6939, 10.8936], [106.692, 10.89], [106.6906, 10.8881], [106.6892, 10.8855], [106.6889, 10.8839], [106.6889, 10.8825], [106.6894, 10.881], [106.6903, 10.8795], [106.6952, 10.8731], [106.6984, 10.8696], [106.7003, 10.8682], [106.7018, 10.8673], [106.7032, 10.8669], [106.7049, 10.8669], [106.7104, 10.8665], [106.7133, 10.8657], [106.7156, 10.8639], [106.7169, 10.8619], [106.7182, 10.8575], [106.7179, 10.8553], [106.7178, 10.8552], [106.7156, 10.8524], [106.7133, 10.8513], [106.7109, 10.8511], [106.7068, 10.8516], [106.7044, 10.8517], [106.7011, 10.8511], [106.699, 10.85], [106.6983, 10.8486], [106.6978, 10.8461], [106.6978, 10.8448], [106.6982, 10.843], [106.6989, 10.8421], [106.699, 10.842], [106.7007, 10.8403], [106.7028, 10.8391], [106.701, 10.8377], [106.7004, 10.8352], [106.6988, 10.8341], [106.6964, 10.8331], [106.6952, 10.8309], [106.6944, 10.8302], [106.6931, 10.83], [106.6924, 10.8305], [106.6909, 10.8331], [106.6911, 10.8346], [106.6905, 10.8365], [106.689, 10.8387], [106.6887, 10.8404], [106.6892, 10.8435], [106.6888, 10.8449], [106.6879, 10.8465], [106.6868, 10.8472], [106.6845, 10.847], [106.6835, 10.8471], [106.6829, 10.8481], [106.6844, 10.8507], [106.6841, 10.8514], [106.6822, 10.8516], [106.6796, 10.8508], [106.6788, 10.851], [106.6759, 10.852], [106.6758, 10.853], [106.675, 10.8552], [106.6752, 10.8568], [106.6743, 10.8583], [106.6735, 10.8601], [106.6721, 10.8604], [106.6704, 10.8594], [106.6692, 10.858], [106.668, 10.8575], [106.667, 10.856], [106.6656, 10.8564], [106.665, 10.8559], [106.6628, 10.8555], [106.6613, 10.8558], [106.6593, 10.8576], [106.6582, 10.8579], [106.6571, 10.8577], [106.6553, 10.8589], [106.654, 10.8592], [106.6532, 10.8604], [106.6523, 10.8607], [106.6509, 10.8598], [106.65, 10.8591], [106.6487, 10.8588], [106.6471, 10.8579], [106.6465, 10.8559], [106.6464, 10.8546], [106.6447, 10.8539], [106.6444, 10.8531], [106.643, 10.8522], [106.6427, 10.8508], [106.6414, 10.8497], [106.64, 10.8491], [106.6352, 10.8453], [106.6339, 10.8449], [106.6336, 10.8435], [106.6337, 10.8415], [106.6324, 10.8405], [106.6323, 10.8393], [106.6329, 10.838], [106.6322, 10.8374], [106.632, 10.8364], [106.6328, 10.8347], [106.6324, 10.833], [106.6311, 10.8297], [106.6297, 10.827], [106.6279, 10.8247], [106.6238, 10.8199], [106.6235, 10.8196], [106.6234, 10.8196], [106.6212, 10.8188], [106.6196, 10.8186], [106.6182, 10.8195], [106.6167, 10.8198], [106.616, 10.8195], [106.6145, 10.8211], [106.6118, 10.8217], [106.6094, 10.8229], [106.6077, 10.8232], [106.6044, 10.8253], [106.6035, 10.8263], [106.6034, 10.8263], [106.6033, 10.8263], [106.604, 10.8289], [106.6045, 10.8302]]]}}, {"type": "Feature", "properties": {"name": "Thành Phố Thủ Đức", "ward_count": 12}, "geometry": {"type": "Polygon", "coordinates": [[[106.7378, 10.777], [106.7359, 10.7758], [106.7354, 10.7746], [106.7348, 10.7719], [106.7341, 10.7679], [106.7341, 10.766], [106.7338, 10.7642], [106.7333, 10.7629], [106.7318, 10.7608], [106.7304, 10.76], [106.7279, 10.7594], [106.7262, 10.7592], [106.7221, 10.7593], [106.7215, 10.7594], [106.7169, 10.7613], [106.7131, 10.7633], [106.7116, 10.7645], [106.7101, 10.7661], [106.7085, 10.7695], [106.7081, 10.771], [106.7082, 10.7735], [106.7086, 10.7769], [106.7092, 10.7791], [106.7103, 10.7816], [106.7114, 10.783], [106.7141, 10.785], [106.7153, 10.7852], [106.7174, 10.7856], [106.7203, 10.7865], [106.7226, 10.7881], [106.7232, 10.7881], [106.7241, 10.789], [106.7262, 10.7922], [106.7271, 10.7953], [106.7275, 10.7981], [106.7271, 10.7985], [106.7271, 10.8002], [106.7265, 10.8014], [106.7232, 10.806], [106.7231, 10.8062], [106.7222, 10.8098], [106.7226, 10.8119], [106.7237, 10.8143], [106.726, 10.8171], [106.7293, 10.8192], [106.7316, 10.8198], [106.7329, 10.8194], [106.7341, 10.8185], [106.7352, 10.8167], [106.7363, 10.8131], [106.7376, 10.8109], [106.7401, 10.8092], [106.7433, 10.8084], [106.7464, 10.8087], [106.7484, 10.8097], [106.7497, 10.811], [106.7512, 10.813], [106.7515, 10.8155], [106.7515, 10.8272], [106.7514, 10.8285], [106.7506, 10.83], [106.7495, 10.8319], [106.7472, 10.8336], [106.7447, 10.8346], [106.7409, 10.8356], [106.7399, 10.8356], [106.7387, 10.8352], [106.7377, 10.8345], [106.7361, 10.8325], [106.7331, 10.8276], [106.7312, 10.8255], [106.7295, 10.824], [106.7277, 10.823], [106.7248, 10.8217], [106.7215, 10.8207], [106.7196, 10.8204], [106.7183, 10.8204], [106.7139, 10.8208], [106.7136, 10.821], [106.7114, 10.8224], [106.7099, 10.8237], [106.7089, 10.8266], [106.7086, 10.8317], [106.7082, 10.8339], [106.7072, 10.8357], [106.7062, 10.8369], [106.7042, 10.8384], [106.7028, 10.8391], [106.7007, 10.8403], [106.699, 10.842], [106.6989, 10.8421], [106.6982, 10.843], [106.6978, 10.8448], [106.6978, 10.8461], [106.6983, 10.8486], [106.699, 10.85], [106.7011, 10.8511], [106.7044, 10.8517], [106.7068, 10.8516], [106.7109, 10.8511], [106.7133, 10.8513], [106.7156, 10.8524], [106.7178, 10.8552], [106.7179, 10.8553], [106.7182, 10.8575], [106.7169, 10.8619], [106.7156, 10.8639], [106.7133, 10.8657], [106.7155, 10.8685], [106.7153, 10.8694], [106.715, 10.8724], [106.7164, 10.8728], [106.7178, 10.8724], [106.7199, 10.8723], [106.7214, 10.8717], [106.7235, 10.8717], [106.7236, 10.8725], [106.7227, 10.8733], [106.7216, 10.8751], [106.7214, 10.8764], [106.7175, 10.8772], [106.7152, 10.8775], [106.714, 10.8772], [106.7134, 10.879], [106.718, 10.8808], [106.7171, 10.8824], [106.7166, 10.8847], [106.7174, 10.8864], [106.7173, 10.8879], [106.7155, 10.8877], [106.7145, 10.8868], [106.7138, 10.8875], [106.7131, 10.8899], [106.7155, 10.8929], [106.7176, 10.8964], [106.7205, 10.8944], [106.7258, 10.891], [106.7275, 10.8901], [106.7284, 10.8909], [106.7292, 10.8894], [106.733, 10.8908], [106.732, 10.8878], [106.731, 10.8859], [106.7324, 10.8857], [106.7367, 10.8846], [106.7342, 10.8805], [106.7354, 10.8802], [106.7372, 10.8803], [106.7384, 10.8794], [106.7396, 10.881], [106.7402, 10.8807], [106.7412, 10.8813], [106.7431, 10.8802], [106.745, 10.8816], [106.7457, 10.8808], [106.7447, 10.8801], [106.7472, 10.8774], [106.7485, 10.8781], [106.7494, 10.8768], [106.7504, 10.8773], [106.7514, 10.8755], [106.7464, 10.8739], [106.747, 10.8721], [106.746, 10.8717], [106.7474, 10.8694], [106.7479, 10.8692], [106.7479, 10.8674], [106.75, 10.8643], [106.7511, 10.8644], [106.752, 10.8635], [106.7549, 10.8664], [106.7561, 10.8664], [106.7575, 10.8671], [106.7596, 10.8669], [106.7623, 10.8673], [106.7633, 10.8691], [106.7634, 10.8699], [106.7622, 10.8711], [106.7604, 10.8724], [106.7617, 10.8744], [106.7618, 10.8755], [106.7614, 10.8785], [106.762, 10.8787], [106.7605, 10.8813], [106.7618, 10.8826], [106.7636, 10.8838], [106.7645, 10.8849], [106.7646, 10.8863], [106.7653, 10.8877], [106.766, 10.8884], [106.7669, 10.8915], [106.7684, 10.8923], [106.7684, 10.8936], [106.769, 10.8937], [106.7695, 10.8939], [106.7708, 10.8923], [106.7712, 10.8912], [106.7728, 10.8896], [106.7756, 10.8871], [106.7767, 10.885], [106.7805, 10.8815], [106.7813, 10.8795], [106.7812, 10.8781], [106.7819, 10.8775], [106.7819, 10.874], [106.7807, 10.8718], [106.78, 10.8684], [106.7821, 10.8677], [106.7842, 10.8673], [106.7889, 10.8672], [106.7878, 10.868], [106.788, 10.8701], [106.7889, 10.8719], [106.7921, 10.872], [106.7924, 10.8726], [106.7937, 10.8725], [106.7949, 10.8735], [106.7975, 10.8732], [106.7982, 10.872], [106.7989, 10.8721], [106.8012, 10.8735], [106.8044, 10.8737], [106.8053, 10.8751], [106.8076, 10.874], [106.8086, 10.873], [106.813, 10.8791], [106.814, 10.8782], [106.8176, 10.8826], [106.8181, 10.8842], [106.8189, 10.8844], [106.819, 10.8853], [106.8197, 10.8861], [106.8208, 10.8857], [106.8218, 10.886], [106.8233, 10.8872], [106.8242, 10.8887], [106.8237, 10.892], [106.8252, 10.8931], [106.8262, 10.8949], [106.8281, 10.8942], [106.8304, 10.8953], [106.8315, 10.8965], [106.8324, 10.8967], [106.8327, 10.8975], [106.8339, 10.8983], [106.8378, 10.8983], [106.8402, 10.8989], [106.8407, 10.8971], [106.8424, 10.8925], [106.8437, 10.8844], [106.8441, 10.8835], [106.8479, 10.8804], [106.851, 10.8763], [106.8512, 10.8751], [106.8509, 10.8735], [106.8492, 10.8698], [106.8467, 10.8655], [106.8468, 10.8644], [106.8476, 10.8616], [106.8492, 10.8574], [106.8512, 10.854], [106.8525, 10.8507], [106.8559, 10.8435], [106.8575, 10.8415], [106.8622, 10.8367], [106.8639, 10.8349], [106.8715, 10.8259], [106.8775, 10.8196], [106.8786, 10.8181], [106.8809, 10.8142], [106.8817, 10.8125], [106.882, 10.8101], [106.8819, 10.8077], [106.8811, 10.8048], [106.8796, 10.8023], [106.8782, 10.8007], [106.8768, 10.7997], [106.8702, 10.7942], [106.8663, 10.7904], [106.8653, 10.7887], [106.8651, 10.7872], [106.8655, 10.7848], [106.8671, 10.7823], [106.8697, 10.7797], [106.8707, 10.7781], [106.8716, 10.7757], [106.8715, 10.77], [106.8713, 10.7687], [106.8703, 10.7671], [106.8692, 10.7661], [106.8663, 10.7648], [106.8639, 10.7649], [106.8627, 10.7654], [106.8606, 10.7675], [106.8591, 10.7698], [106.8579, 10.7712], [106.8554, 10.7732], [106.8528, 10.7744], [106.8498, 10.7749], [106.8464, 10.775], [106.8447, 10.7747], [106.8412, 10.773], [106.8362, 10.7698], [106.8333, 10.7668], [106.8315, 10.7644], [106.8299, 10.7616], [106.828, 10.7599], [106.8259, 10.7596], [106.8247, 10.7597], [106.8233, 10.761], [106.8229, 10.7627], [106.8229, 10.7639], [106.8234, 10.7662], [106.824, 10.7677], [106.8253, 10.7698], [106.8261, 10.7728], [106.8262, 10.7742], [106.8258, 10.7761], [106.8252, 10.7777], [106.8243, 10.7791], [106.8229, 10.7802], [106.8214, 10.7807], [106.8196, 10.7807], [106.8168, 10.78], [106.8143, 10.7783], [106.81, 10.7747], [106.8061, 10.7707], [106.8051, 10.7685], [106.8046, 10.7656], [106.8038, 10.7636], [106.8026, 10.7618], [106.8009, 10.7601], [106.7991, 10.7589], [106.791, 10.7553], [106.7818, 10.7513], [106.7781, 10.7501], [106.7737, 10.7477], [106.7697, 10.7442], [106.7625, 10.7445], [106.7588, 10.7445], [106.7571, 10.7439], [106.7518, 10.7419], [106.7492, 10.7418], [106.7467, 10.7427], [106.7459, 10.7433], [106.7447, 10.7451], [106.7442, 10.7475], [106.7445, 10.749], [106.7453, 10.7512], [106.7466, 10.7537], [106.7518, 10.7599], [106.7524, 10.7611], [106.753, 10.7641], [106.7526, 10.7666], [106.7518, 10.7694], [106.7475, 10.7736], [106.7452, 10.7755], [106.744, 10.7763], [106.7422, 10.7772], [106.7403, 10.7776], [106.7378, 10.777]]]}}, {"type": "Feature", "properties": {"name": "Quận 1", "ward_count": 4}, "geometry": {"type": "Polygon", "coordinates": [[[106.6982, 10.7634], [106.6969, 10.7617], [106.6953, 10.7599], [106.6924, 10.7581], [106.6895, 10.7558], [106.687, 10.7533], [106.6864, 10.7547], [106.6851, 10.7566], [106.6817, 10.7654], [106.6845, 10.7684], [106.6894, 10.7736], [106.695, 10.7796], [106.6981, 10.7829], [106.6948, 10.7856], [106.6861, 10.7925], [106.6862, 10.7934], [106.6851, 10.7945], [106.6848, 10.7959], [106.6854, 10.7969], [106.6862, 10.7966], [106.6868, 10.7952], [106.6877, 10.7949], [106.6892, 10.7956], [106.691, 10.7958], [106.6916, 10.7955], [106.6926, 10.7949], [106.6944, 10.7948], [106.6949, 10.7935], [106.6967, 10.7936], [106.6996, 10.7935], [106.7019, 10.7931], [106.7056, 10.7921], [106.7063, 10.7916], [106.707, 10.7908], [106.7075, 10.7893], [106.7086, 10.7878], [106.7096, 10.7874], [106.7124, 10.7878], [106.7135, 10.7871], [106.7153, 10.7852], [106.7141, 10.785], [106.7114, 10.783], [106.7103, 10.7816], [106.7092, 10.7791], [106.7086, 10.7769], [106.7082, 10.7735], [106.7081, 10.771], [106.7085, 10.7695], [106.7053, 10.7689], [106.7031, 10.7676], [106.7012, 10.7653], [106.6993, 10.7641], [106.6982, 10.7634]]]}}, {"type": "Feature", "properties": {"name": "Huyện Cần Giờ", "ward_count": 4}, "geometry": {"type": "MultiPolygon", "coordinates": [[[[106.9314, 10.4671], [106.9313, 10.4662], [106.933, 10.4647], [106.9329, 10.4639], [106.934, 10.4637], [106.934, 10.4627], [106.9347, 10.462], [106.9343, 10.4603], [106.9322, 10.4561], [106.9321, 10.4553], [106.9326, 10.4533], [106.9321, 10.4522], [106.9329, 10.4501], [106.9324, 10.4464], [106.9333, 10.4451], [106.9339, 10.4436], [106.9381, 10.436], [106.9401, 10.4353], [106.9415, 10.4351], [106.9423, 10.4342], [106.9426, 10.4331], [106.9436, 10.4329], [106.9467, 10.428], [106.9477, 10.4276], [106.9481, 10.4264], [106.9501, 10.4258], [106.9516, 10.4257], [106.9518, 10.4252], [106.9536, 10.4246], [106.954, 10.4236], [106.9552, 10.4236], [106.9565, 10.4226], [106.9574, 10.4224], [106.9581, 10.4212], [106.9594, 10.42], [106.9608, 10.4211], [106.9635, 10.4185], [106.9645, 10.4166], [106.9656, 10.4162], [106.9677, 10.4165], [106.9681, 10.4172], [106.9699, 10.4166], [106.9708, 10.4174], [106.9722, 10.4174], [106.9731, 10.4166], [106.9748, 10.4157], [106.974, 10.4127], [106.9733, 10.4108], [106.971, 10.4071], [106.9639, 10.4043], [106.9586, 10.4019], [106.9491, 10.3983], [106.9477, 10.3979], [106.9436, 10.3963], [106.9399, 10.395], [106.937, 10.3946], [106.936, 10.3948], [106.9348, 10.3942], [106.9339, 10.3929], [106.931, 10.3914], [106.9275, 10.3898], [106.9207, 10.3863], [106.9206, 10.3857], [106.9214, 10.3837], [106.9199, 10.3834], [106.9183, 10.3821], [106.9171, 10.3817], [106.916, 10.3829], [106.9135, 10.3821], [106.9117, 10.3826], [106.9101, 10.3822], [106.9089, 10.3814], [106.9068, 10.3806], [106.9052, 10.3797], [106.9004, 10.3779], [106.8983, 10.3772], [106.8951, 10.3773], [106.8906, 10.377], [106.8877, 10.3772], [106.8856, 10.3771], [106.8821, 10.3766], [106.8809, 10.3771], [106.8795, 10.3769], [106.8788, 10.3773], [106.8752, 10.3778], [106.8758, 10.3787], [106.8786, 10.3809], [106.8799, 10.3826], [106.8801, 10.3847], [106.8807, 10.3859], [106.8814, 10.3888], [106.8804, 10.391], [106.8795, 10.3917], [106.8789, 10.3937], [106.8794, 10.3954], [106.8791, 10.3962], [106.8779, 10.3964], [106.8775, 10.3972], [106.8768, 10.4006], [106.876, 10.4013], [106.8737, 10.4075], [106.8736, 10.4085], [106.8643, 10.4071], [106.8524, 10.4053], [106.8515, 10.4048], [106.8502, 10.4046], [106.8493, 10.4035], [106.8486, 10.4035], [106.8474, 10.4027], [106.8467, 10.4027], [106.8437, 10.4014], [106.841, 10.3999], [106.8398, 10.3984], [106.8388, 10.3979], [106.8379, 10.3971], [106.8349, 10.3961], [106.8315, 10.3961], [106.8294, 10.3972], [106.8078, 10.3958], [106.8065, 10.3994], [106.8064, 10.4045], [106.806, 10.4065], [106.8054, 10.4078], [106.8005, 10.4126], [106.7808, 10.4298], [106.7727, 10.4389], [106.7629, 10.4511], [106.7614, 10.4537], [106.7518, 10.4677], [106.75, 10.4736], [106.7452, 10.4829], [106.7433, 10.4877], [106.7428, 10.4896], [106.7424, 10.4932], [106.7429, 10.499], [106.7439, 10.5036], [106.745, 10.5077], [106.7474, 10.5156], [106.7479, 10.5183], [106.7482, 10.5209], [106.7484, 10.5252], [106.7478, 10.5328], [106.7466, 10.5387], [106.7453, 10.5458], [106.7444, 10.5494], [106.7438, 10.5529], [106.7425, 10.5596], [106.7418, 10.5638], [106.7417, 10.5671], [106.7419, 10.5689], [106.7427, 10.5712], [106.7447, 10.5743], [106.7457, 10.5756], [106.7483, 10.5783], [106.7498, 10.5795], [106.7518, 10.5804], [106.7539, 10.5809], [106.7573, 10.5811], [106.76, 10.5806], [106.7671, 10.5783], [106.7708, 10.5767], [106.7726, 10.5764], [106.7749, 10.5765], [106.7776, 10.5773], [106.7804, 10.579], [106.7817, 10.5805], [106.7829, 10.583], [106.7836, 10.5855], [106.7836, 10.5922], [106.7825, 10.5966], [106.7802, 10.6018], [106.7788, 10.604], [106.7782, 10.6049], [106.7758, 10.6079], [106.772, 10.6137], [106.7709, 10.6166], [106.7705, 10.6195], [106.7705, 10.624], [106.771, 10.6279], [106.7716, 10.6332], [106.7713, 10.6355], [106.7709, 10.6369], [106.7689, 10.6401], [106.7672, 10.642], [106.7638, 10.6442], [106.7593, 10.6463], [106.7495, 10.6499], [106.7466, 10.6513], [106.743, 10.6544], [106.7407, 10.6572], [106.7396, 10.6591], [106.7384, 10.663], [106.7384, 10.6654], [106.7389, 10.6667], [106.7402, 10.6681], [106.7423, 10.6697], [106.7436, 10.6704], [106.7457, 10.671], [106.7485, 10.6709], [106.7503, 10.6705], [106.7548, 10.6688], [106.7619, 10.6664], [106.7646, 10.6654], [106.7669, 10.665], [106.7694, 10.6655], [106.771, 10.6665], [106.7724, 10.6681], [106.7765, 10.6745], [106.7783, 10.6736], [106.7833, 10.6726], [106.7855, 10.6716], [106.7884, 10.6699], [106.7903, 10.6687], [106.7967, 10.6627], [106.8007, 10.6606], [106.8043, 10.6591], [106.8071, 10.6572], [106.8092, 10.6542], [106.8098, 10.6528], [106.8121, 10.6449], [106.813, 10.6424], [106.8146, 10.6396], [106.8179, 10.635], [106.8202, 10.6323], [106.8227, 10.63], [106.8247, 10.6285], [106.8267, 10.6277], [106.8294, 10.6272], [106.8348, 10.6269], [106.8363, 10.6272], [106.8378, 10.6281], [106.8388, 10.6294], [106.8396, 10.6316], [106.84, 10.634], [106.8407, 10.6357], [106.8416, 10.6369], [106.844, 10.6384], [106.8475, 10.6393], [106.8504, 10.6397], [106.8523, 10.6395], [106.854, 10.6391], [106.8578, 10.6371], [106.8592, 10.6367], [106.8607, 10.6368], [106.8616, 10.6375], [106.8635, 10.6413], [106.8648, 10.6422], [106.866, 10.6425], [106.8689, 10.6427], [106.8705, 10.644], [106.8715, 10.6466], [106.8727, 10.6477], [106.8738, 10.6483], [106.8752, 10.6485], [106.88, 10.6482], [106.8815, 10.648], [106.8829, 10.6474], [106.8839, 10.6459], [106.8846, 10.6421], [106.885, 10.6404], [106.8859, 10.6395], [106.8895, 10.6378], [106.8906, 10.6366], [106.8912, 10.6345], [106.8928, 10.6322], [106.8969, 10.6301], [106.8985, 10.629], [106.9012, 10.6267], [106.9038, 10.624], [106.9045, 10.6231], [106.9064, 10.619], [106.9072, 10.6156], [106.9085, 10.6124], [106.9102, 10.6092], [106.9111, 10.6084], [106.9129, 10.6076], [106.9143, 10.6078], [106.9186, 10.6097], [106.9214, 10.6097], [106.923, 10.6083], [106.9244, 10.6062], [106.9261, 10.6043], [106.9277, 10.6032], [106.9326, 10.6018], [106.9358, 10.5997], [106.9384, 10.5991], [106.9401, 10.5974], [106.9422, 10.5966], [106.9438, 10.5968], [106.9463, 10.5973], [106.9544, 10.5944], [106.9567, 10.5939], [106.9593, 10.5938], [106.9612, 10.5932], [106.9636, 10.5914], [106.9676, 10.5901], [106.9689, 10.5891], [106.9717, 10.586], [106.9741, 10.5828], [106.9749, 10.5823], [106.9765, 10.5822], [106.9777, 10.5827], [106.9801, 10.5816], [106.9837, 10.5791], [106.9863, 10.5852], [106.9869, 10.5874], [106.9872, 10.5896], [106.9866, 10.5939], [106.9859, 10.5961], [106.9878, 10.5982], [106.9893, 10.5991], [106.9904, 10.6001], [106.9907, 10.6019], [106.9903, 10.6035], [106.9904, 10.6048], [106.9913, 10.6054], [106.9931, 10.6056], [106.9953, 10.6052], [106.9965, 10.6055], [106.9973, 10.6073], [106.9985, 10.6077], [107.0, 10.607], [107.0007, 10.6071], [107.0025, 10.6087], [107.0021, 10.6103], [107.0036, 10.6108], [107.0056, 10.6098], [107.0068, 10.6102], [107.0076, 10.6133], [107.0114, 10.6108], [107.0174, 10.6065], [107.0195, 10.6037], [107.0198, 10.6026], [107.0199, 10.6011], [107.0203, 10.599], [107.0211, 10.5979], [107.0224, 10.5952], [107.0239, 10.5924], [107.0247, 10.5916], [107.0267, 10.5887], [107.027, 10.5868], [107.0266, 10.5831], [107.0259, 10.5816], [107.024, 10.578], [107.0215, 10.5742], [107.0187, 10.5705], [107.0178, 10.5695], [107.0166, 10.5676], [107.0146, 10.565], [107.0114, 10.5588], [107.011, 10.5576], [107.0109, 10.555], [107.0115, 10.5515], [107.0125, 10.5499], [107.0143, 10.5484], [107.0164, 10.5477], [107.0209, 10.5467], [107.024, 10.5462], [107.0249, 10.5455], [107.0264, 10.5447], [107.0274, 10.5421], [107.0277, 10.5403], [107.0272, 10.5378], [107.0257, 10.5353], [107.0233, 10.5325], [107.0203, 10.5298], [107.0179, 10.5281], [107.0149, 10.5244], [107.0129, 10.5215], [107.0116, 10.5177], [107.0103, 10.5154], [107.0073, 10.5113], [107.0034, 10.5086], [107.0002, 10.5071], [106.9992, 10.5064], [106.9977, 10.5044], [106.9972, 10.5022], [106.9975, 10.5001], [106.9985, 10.499], [106.9915, 10.499], [106.9908, 10.4988], [106.9887, 10.4967], [106.9888, 10.4957], [106.9876, 10.4952], [106.9862, 10.4936], [106.9854, 10.4916], [106.9843, 10.492], [106.9835, 10.4936], [106.9831, 10.496], [106.9841, 10.499], [106.9747, 10.4983], [106.9745, 10.4966], [106.9748, 10.4961], [106.9747, 10.494], [106.975, 10.4926], [106.9742, 10.4917], [106.9751, 10.4903], [106.975, 10.4885], [106.9768, 10.4874], [106.9769, 10.4857], [106.9758, 10.4839], [106.9748, 10.4833], [106.9734, 10.4817], [106.9721, 10.4808], [106.971, 10.4791], [106.9708, 10.4783], [106.9692, 10.4758], [106.9693, 10.4754], [106.9686, 10.4723], [106.9674, 10.4716], [106.9675, 10.4697], [106.967, 10.4677], [106.9671, 10.4666], [106.9665, 10.4641], [106.9654, 10.464], [106.9621, 10.4648], [106.96, 10.467], [106.9582, 10.4671], [106.9562, 10.4695], [106.9549, 10.4694], [106.9537, 10.4687], [106.9526, 10.4693], [106.9516, 10.4708], [106.9505, 10.471], [106.9491, 10.4708], [106.9476, 10.4722], [106.9447, 10.4722], [106.9386, 10.4699], [106.9314, 10.4671]]], [[[106.9763, 10.4634], [106.9761, 10.4629], [106.9763, 10.461], [106.9738, 10.4599], [106.9733, 10.4607], [106.9738, 10.4615], [106.9735, 10.4624], [106.9737, 10.4636], [106.9728, 10.466], [106.9728, 10.4669], [106.9718, 10.4685], [106.9725, 10.4703], [106.9737, 10.4714], [106.9745, 10.4708], [106.9767, 10.4733], [106.9777, 10.474], [106.978, 10.4724], [106.977, 10.4704], [106.9757, 10.4684], [106.9753, 10.4671], [106.9763, 10.4634]]], [[[106.984, 10.4798], [106.9832, 10.4804], [106.9836, 10.4821], [106.9845, 10.4837], [106.9849, 10.4854], [106.9857, 10.4847], [106.9865, 10.4828], [106.9869, 10.4804], [106.9853, 10.4804], [106.984, 10.4798]]]]}}, {"type": "Feature", "properties": {"name": "Quận Tân Bình", "ward_count": 6}, "geometry": {"type": "Polygon", "coordinates": [[[106.6524, 10.7691], [106.6521, 10.769], [106.6509, 10.7705], [106.648, 10.7748], [106.6477, 10.7752], [106.6454, 10.7783], [106.6433, 10.7814], [106.6416, 10.786], [106.6412, 10.7871], [106.6392, 10.7931], [106.6379, 10.797], [106.6367, 10.8016], [106.6358, 10.8038], [106.6347, 10.8075], [106.6303, 10.8217], [106.6295, 10.8232], [106.6279, 10.8247], [106.6297, 10.827], [106.6311, 10.8297], [106.6324, 10.833], [106.6339, 10.8324], [106.6381, 10.83], [106.6406, 10.8293], [106.6426, 10.8282], [106.6463, 10.8374], [106.6467, 10.8367], [106.6521, 10.8366], [106.6556, 10.836], [106.6571, 10.8354], [106.6574, 10.8349], [106.6596, 10.8329], [106.6619, 10.8314], [106.6636, 10.8307], [106.664, 10.8306], [106.6661, 10.8284], [106.6681, 10.8283], [106.6704, 10.8272], [106.6732, 10.8279], [106.6742, 10.8263], [106.6749, 10.8263], [106.6775, 10.827], [106.6778, 10.8269], [106.6786, 10.8261], [106.6783, 10.8251], [106.6767, 10.8241], [106.6753, 10.8237], [106.6732, 10.8223], [106.6748, 10.8183], [106.6742, 10.818], [106.6757, 10.8163], [106.6757, 10.8153], [106.6728, 10.8141], [106.6721, 10.8123], [106.6724, 10.8107], [106.6716, 10.8094], [106.6707, 10.8098], [106.671, 10.8078], [106.67, 10.8077], [106.6695, 10.8067], [106.6692, 10.8042], [106.6688, 10.8021], [106.6677, 10.8002], [106.6691, 10.7989], [106.6685, 10.7982], [106.6682, 10.7938], [106.666, 10.7908], [106.6667, 10.7896], [106.6652, 10.7887], [106.6643, 10.7871], [106.6646, 10.7869], [106.6602, 10.7822], [106.6564, 10.7781], [106.656, 10.7782], [106.6533, 10.7758], [106.6524, 10.7691]]]}}, {"type": "Feature", "properties": {"name": "Huyện Bình Chánh", "ward_count": 7}, "geometry": {"type": "Polygon", "coordinates": [[[106.6261, 10.6937], [106.6254, 10.6945], [106.629, 10.7015], [106.6313, 10.7061], [106.6357, 10.715], [106.6422, 10.7277], [106.6444, 10.728], [106.6449, 10.7269], [106.6468, 10.7288], [106.648, 10.7277], [106.6487, 10.7284], [106.6502, 10.7284], [106.6493, 10.7304], [106.6542, 10.7316], [106.6561, 10.7316], [106.658, 10.7325], [106.6595, 10.7326], [106.6633, 10.7339], [106.6657, 10.7342], [106.666, 10.7324], [106.6739, 10.7375], [106.6748, 10.736], [106.6768, 10.7351], [106.6781, 10.7354], [106.6822, 10.7347], [106.6821, 10.7367], [106.683, 10.7385], [106.683, 10.7394], [106.6848, 10.7398], [106.687, 10.7401], [106.69, 10.741], [106.6921, 10.7414], [106.6941, 10.7385], [106.695, 10.7361], [106.6945, 10.7349], [106.6932, 10.7329], [106.6909, 10.7312], [106.6903, 10.73], [106.6902, 10.7255], [106.689, 10.7215], [106.6894, 10.719], [106.6892, 10.7177], [106.6884, 10.7153], [106.6887, 10.7126], [106.6884, 10.7121], [106.6858, 10.7116], [106.6839, 10.7132], [106.6808, 10.7145], [106.6785, 10.7113], [106.6779, 10.7096], [106.6768, 10.7097], [106.6761, 10.7081], [106.6747, 10.7058], [106.6734, 10.7043], [106.6744, 10.7022], [106.6738, 10.6982], [106.6738, 10.6956], [106.6733, 10.6922], [106.675, 10.6901], [106.6757, 10.6886], [106.676, 10.6861], [106.677, 10.6844], [106.6793, 10.6822], [106.6807, 10.6802], [106.6812, 10.679], [106.6814, 10.6771], [106.6808, 10.6754], [106.6787, 10.6717], [106.6784, 10.6689], [106.6787, 10.6648], [106.6796, 10.6631], [106.6804, 10.6626], [106.683, 10.6619], [106.6842, 10.6613], [106.685, 10.6603], [106.6858, 10.6562], [106.686, 10.6536], [106.6859, 10.6523], [106.6853, 10.6511], [106.684, 10.6498], [106.6819, 10.6484], [106.6786, 10.6453], [106.6756, 10.6448], [106.6737, 10.6439], [106.6732, 10.6422], [106.6713, 10.6411], [106.6697, 10.6393], [106.6684, 10.6391], [106.6673, 10.6399], [106.6663, 10.6401], [106.6664, 10.6387], [106.6651, 10.639], [106.663, 10.6401], [106.6626, 10.6393], [106.6609, 10.6401], [106.6602, 10.641], [106.6609, 10.6421], [106.6575, 10.6437], [106.6564, 10.6436], [106.6563, 10.6416], [106.6567, 10.641], [106.6568, 10.6392], [106.6545, 10.6391], [106.6539, 10.6395], [106.653, 10.6379], [106.6534, 10.6363], [106.6533, 10.6333], [106.6527, 10.6322], [106.6514, 10.6327], [106.6485, 10.6327], [106.6468, 10.6343], [106.6462, 10.6342], [106.6438, 10.6296], [106.6414, 10.6273], [106.641, 10.6267], [106.6389, 10.6275], [106.6378, 10.6266], [106.6368, 10.6262], [106.6355, 10.6263], [106.6346, 10.6257], [106.6336, 10.6272], [106.6325, 10.6282], [106.631, 10.6279], [106.6302, 10.6266], [106.6296, 10.6271], [106.6297, 10.6288], [106.631, 10.6301], [106.6297, 10.632], [106.6298, 10.6336], [106.6297, 10.6359], [106.6299, 10.6364], [106.6312, 10.6367], [106.6298, 10.6394], [106.6303, 10.6405], [106.6297, 10.6423], [106.6281, 10.6421], [106.6271, 10.6424], [106.6258, 10.6397], [106.6246, 10.6399], [106.6241, 10.6395], [106.6225, 10.6406], [106.6212, 10.6411], [106.6219, 10.6418], [106.6221, 10.6432], [106.6218, 10.6441], [106.6234, 10.6441], [106.6243, 10.6445], [106.6241, 10.6465], [106.625, 10.6473], [106.6223, 10.6481], [106.6212, 10.6487], [106.6189, 10.649], [106.619, 10.6496], [106.6173, 10.6502], [106.6177, 10.6519], [106.6169, 10.6522], [106.6168, 10.6532], [106.616, 10.6532], [106.6155, 10.6541], [106.6146, 10.6537], [106.6126, 10.6552], [106.6114, 10.6566], [106.6071, 10.658], [106.6055, 10.6583], [106.6054, 10.6587], [106.6046, 10.6579], [106.6032, 10.6547], [106.6027, 10.6532], [106.6019, 10.6523], [106.6018, 10.6514], [106.6005, 10.6508], [106.6003, 10.652], [106.5975, 10.6534], [106.5952, 10.6538], [106.5957, 10.6511], [106.595, 10.6506], [106.5917, 10.6501], [106.5909, 10.6511], [106.5904, 10.6531], [106.5874, 10.6528], [106.5841, 10.6537], [106.5833, 10.6554], [106.5806, 10.6555], [106.5797, 10.6561], [106.5794, 10.655], [106.5779, 10.6533], [106.5781, 10.6519], [106.5796, 10.6519], [106.579, 10.6496], [106.577, 10.6489], [106.5754, 10.6491], [106.5751, 10.6499], [106.5734, 10.6498], [106.5731, 10.6518], [106.5735, 10.6542], [106.5727, 10.6544], [106.5697, 10.6563], [106.5685, 10.6561], [106.5662, 10.6565], [106.5659, 10.6539], [106.5651, 10.653], [106.5653, 10.6523], [106.5632, 10.6522], [106.5631, 10.6514], [106.56, 10.6516], [106.559, 10.6519], [106.5588, 10.6506], [106.5592, 10.6499], [106.5585, 10.6486], [106.5579, 10.6486], [106.5574, 10.6504], [106.5556, 10.6509], [106.5552, 10.6537], [106.5554, 10.6549], [106.556, 10.6555], [106.5559, 10.6569], [106.5527, 10.6575], [106.5489, 10.6575], [106.5493, 10.6596], [106.5505, 10.659], [106.5514, 10.6614], [106.5515, 10.664], [106.5519, 10.6649], [106.5532, 10.6658], [106.5532, 10.6675], [106.5535, 10.6684], [106.553, 10.6689], [106.5521, 10.6706], [106.5532, 10.672], [106.5533, 10.6745], [106.5537, 10.6753], [106.553, 10.6757], [106.5529, 10.677], [106.5515, 10.6796], [106.5514, 10.6825], [106.5503, 10.6857], [106.5489, 10.6865], [106.5483, 10.6862], [106.5473, 10.6871], [106.5398, 10.6861], [106.5378, 10.6861], [106.5357, 10.6855], [106.5351, 10.687], [106.5339, 10.6881], [106.5331, 10.6907], [106.5303, 10.6982], [106.529, 10.7022], [106.5272, 10.7091], [106.5284, 10.715], [106.5302, 10.7173], [106.5286, 10.7184], [106.5262, 10.7195], [106.5239, 10.7209], [106.5203, 10.7236], [106.5136, 10.7196], [106.5094, 10.7171], [106.502, 10.7261], [106.5013, 10.7263], [106.4995, 10.725], [106.4973, 10.7263], [106.4957, 10.7276], [106.4952, 10.7273], [106.492, 10.7291], [106.4888, 10.7312], [106.487, 10.7298], [106.4824, 10.7355], [106.482, 10.7354], [106.4783, 10.7402], [106.4744, 10.7453], [106.4734, 10.7464], [106.4722, 10.7454], [106.4674, 10.7515], [106.4637, 10.7565], [106.4686, 10.7604], [106.4866, 10.7741], [106.4871, 10.7744], [106.4955, 10.7814], [106.5018, 10.7867], [106.5045, 10.7889], [106.5057, 10.7937], [106.5063, 10.795], [106.5081, 10.8038], [106.5094, 10.8083], [106.5112, 10.8174], [106.5136, 10.8261], [106.5158, 10.8349], [106.5171, 10.8401], [106.5188, 10.8467], [106.5201, 10.8522], [106.5222, 10.8598], [106.5224, 10.8609], [106.5248, 10.87], [106.5259, 10.8736], [106.5349, 10.8719], [106.5327, 10.8631], [106.5287, 10.8475], [106.5448, 10.8431], [106.5452, 10.8448], [106.556, 10.8431], [106.5574, 10.8434], [106.5578, 10.8442], [106.5587, 10.8439], [106.5596, 10.8444], [106.5624, 10.8447], [106.5626, 10.8429], [106.5632, 10.8414], [106.5646, 10.8408], [106.5661, 10.8411], [106.5693, 10.8428], [106.5727, 10.8426], [106.5758, 10.8426], [106.5765, 10.84], [106.5765, 10.8384], [106.5782, 10.8372], [106.579, 10.8355], [106.5809, 10.8341], [106.5822, 10.8327], [106.5843, 10.8326], [106.5862, 10.8331], [106.5905, 10.832], [106.5921, 10.8306], [106.5929, 10.8295], [106.5952, 10.8298], [106.5936, 10.8275], [106.5904, 10.8234], [106.5849, 10.8182], [106.5818, 10.8156], [106.5829, 10.8153], [106.5834, 10.8135], [106.5849, 10.8137], [106.5859, 10.8128], [106.5846, 10.8068], [106.5835, 10.8064], [106.5834, 10.8041], [106.5829, 10.7973], [106.5846, 10.7973], [106.5843, 10.7958], [106.5846, 10.7948], [106.5844, 10.7908], [106.5856, 10.7906], [106.5856, 10.7899], [106.5868, 10.7898], [106.5865, 10.7882], [106.5892, 10.7873], [106.5883, 10.7842], [106.5881, 10.7817], [106.5888, 10.7794], [106.5885, 10.7787], [106.5868, 10.7761], [106.5851, 10.775], [106.5839, 10.7749], [106.582, 10.7753], [106.5805, 10.7746], [106.5793, 10.7732], [106.5778, 10.7723], [106.577, 10.7713], [106.5767, 10.7701], [106.5755, 10.7688], [106.5732, 10.768], [106.572, 10.7681], [106.5723, 10.769], [106.5705, 10.7697], [106.5677, 10.7629], [106.5734, 10.7604], [106.5703, 10.7576], [106.5681, 10.755], [106.5642, 10.7526], [106.562, 10.7505], [106.5601, 10.7496], [106.5595, 10.749], [106.5591, 10.7477], [106.5593, 10.7462], [106.5589, 10.7447], [106.5593, 10.7421], [106.5583, 10.7395], [106.559, 10.7375], [106.5588, 10.7364], [106.5677, 10.7344], [106.567, 10.7328], [106.581, 10.7296], [106.5877, 10.7278], [106.5933, 10.7259], [106.5969, 10.7244], [106.6008, 10.7221], [106.6008, 10.7219], [106.6001, 10.7179], [106.6032, 10.7177], [106.6041, 10.7173], [106.6039, 10.7162], [106.6031, 10.715], [106.6038, 10.7135], [106.6034, 10.7116], [106.6035, 10.7113], [106.6037, 10.711], [106.6038, 10.711], [106.6072, 10.7084], [106.6084, 10.7067], [106.6088, 10.7063], [106.6084, 10.7061], [106.6054, 10.7046], [106.6031, 10.704], [106.6023, 10.7038], [106.6006, 10.7032], [106.5973, 10.7016], [106.5974, 10.6997], [106.597, 10.6975], [106.5945, 10.6898], [106.6219, 10.6975], [106.6224, 10.6955], [106.6237, 10.693], [106.6242, 10.6922], [106.6261, 10.6937]]]}}, {"type": "Feature", "properties": {"name": "Huyện Hóc Môn", "ward_count": 4}, "geometry": {"type": "Polygon", "coordinates": [[[106.6109, 10.8609], [106.6072, 10.8553], [106.6153, 10.8427], [106.6088, 10.8369], [106.6079, 10.8358], [106.6045, 10.8302], [106.604, 10.8289], [106.6033, 10.8263], [106.6004, 10.8261], [106.5979, 10.8267], [106.5936, 10.8275], [106.5952, 10.8298], [106.5929, 10.8295], [106.5921, 10.8306], [106.5905, 10.832], [106.5862, 10.8331], [106.5843, 10.8326], [106.5822, 10.8327], [106.5809, 10.8341], [106.579, 10.8355], [106.5782, 10.8372], [106.5765, 10.8384], [106.5765, 10.84], [106.5758, 10.8426], [106.5727, 10.8426], [106.5693, 10.8428], [106.5661, 10.8411], [106.5646, 10.8408], [106.5632, 10.8414], [106.5626, 10.8429], [106.5624, 10.8447], [106.5596, 10.8444], [106.5587, 10.8439], [106.5578, 10.8442], [106.5574, 10.8434], [106.556, 10.8431], [106.5452, 10.8448], [106.5448, 10.8431], [106.5287, 10.8475], [106.5327, 10.8631], [106.5349, 10.8719], [106.5259, 10.8736], [106.5266, 10.8773], [106.5282, 10.8824], [106.5316, 10.8957], [106.5328, 10.8997], [106.5326, 10.9013], [106.5314, 10.9027], [106.5258, 10.9055], [106.5249, 10.9062], [106.518, 10.9096], [106.5058, 10.9159], [106.5036, 10.9166], [106.4968, 10.92], [106.4956, 10.9209], [106.5088, 10.9195], [106.5197, 10.9181], [106.5369, 10.916], [106.5387, 10.916], [106.5469, 10.9163], [106.561, 10.9171], [106.563, 10.9182], [106.5641, 10.9189], [106.567, 10.9193], [106.5741, 10.9198], [106.5797, 10.92], [106.5841, 10.9196], [106.5842, 10.9204], [106.5825, 10.9251], [106.5816, 10.9261], [106.5815, 10.9293], [106.5837, 10.9287], [106.5873, 10.9276], [106.5926, 10.9258], [106.6002, 10.9234], [106.6012, 10.9233], [106.6005, 10.9203], [106.6004, 10.9178], [106.6057, 10.9171], [106.6164, 10.9154], [106.6193, 10.915], [106.622, 10.9144], [106.6246, 10.9151], [106.6248, 10.9152], [106.6264, 10.9155], [106.6271, 10.9156], [106.6293, 10.916], [106.6314, 10.9162], [106.6353, 10.9162], [106.6381, 10.9161], [106.6428, 10.9178], [106.6451, 10.9196], [106.6453, 10.9196], [106.646, 10.9198], [106.6484, 10.9195], [106.6511, 10.92], [106.6531, 10.9195], [106.6537, 10.9197], [106.6553, 10.9214], [106.6561, 10.9228], [106.6563, 10.9247], [106.6574, 10.9258], [106.6623, 10.9229], [106.6648, 10.9218], [106.6681, 10.9208], [106.6698, 10.9208], [106.6756, 10.9227], [106.6797, 10.9236], [106.6808, 10.9234], [106.6818, 10.9231], [106.6838, 10.922], [106.6851, 10.9207], [106.6877, 10.9163], [106.6906, 10.9098], [106.6927, 10.9043], [106.6905, 10.9033], [106.6888, 10.9017], [106.688, 10.9013], [106.6858, 10.9001], [106.6816, 10.8985], [106.6797, 10.9035], [106.6792, 10.9035], [106.6752, 10.9023], [106.6735, 10.9017], [106.6707, 10.9012], [106.6706, 10.8979], [106.6699, 10.8945], [106.6693, 10.8939], [106.6689, 10.8916], [106.6656, 10.8921], [106.6634, 10.893], [106.6564, 10.8922], [106.6563, 10.8922], [106.6532, 10.8918], [106.6526, 10.8931], [106.6522, 10.8949], [106.6495, 10.8953], [106.6469, 10.8948], [106.646, 10.8942], [106.6434, 10.8939], [106.6426, 10.8924], [106.6393, 10.8918], [106.6319, 10.8918], [106.6313, 10.8912], [106.6294, 10.8868], [106.6287, 10.8858], [106.6254, 10.8836], [106.6254, 10.883], [106.6279, 10.8812], [106.6258, 10.8782], [106.6248, 10.8772], [106.6194, 10.8712], [106.6149, 10.8703], [106.6155, 10.8674], [106.6109, 10.8609]]]}}, {"type": "Feature", "properties": {"name": "Quận Bình Tân", "ward_count": 5}, "geometry": {"type": "Polygon", "coordinates": [[[106.6238, 10.7457], [106.6231, 10.7451], [106.6218, 10.7414], [106.6223, 10.739], [106.6212, 10.7347], [106.6202, 10.7266], [106.6192, 10.7178], [106.619, 10.7162], [106.6175, 10.7153], [106.6155, 10.715], [106.616, 10.7143], [106.6059, 10.7118], [106.6038, 10.711], [106.6037, 10.711], [106.6035, 10.7113], [106.6034, 10.7116], [106.6038, 10.7135], [106.6031, 10.715], [106.6039, 10.7162], [106.6041, 10.7173], [106.6032, 10.7177], [106.6001, 10.7179], [106.6008, 10.7219], [106.6008, 10.7221], [106.5969, 10.7244], [106.5933, 10.7259], [106.5877, 10.7278], [106.581, 10.7296], [106.567, 10.7328], [106.5677, 10.7344], [106.5588, 10.7364], [106.559, 10.7375], [106.5583, 10.7395], [106.5593, 10.7421], [106.5589, 10.7447], [106.5593, 10.7462], [106.5591, 10.7477], [106.5595, 10.749], [106.5601, 10.7496], [106.562, 10.7505], [106.5642, 10.7526], [106.5681, 10.755], [106.5703, 10.7576], [106.5734, 10.7604], [106.5677, 10.7629], [106.5705, 10.7697], [106.5723, 10.769], [106.572, 10.7681], [106.5732, 10.768], [106.5755, 10.7688], [106.5767, 10.7701], [106.577, 10.7713], [106.5778, 10.7723], [106.5793, 10.7732], [106.5805, 10.7746], [106.582, 10.7753], [106.5839, 10.7749], [106.5851, 10.775], [106.5868, 10.7761], [106.5885, 10.7787], [106.5888, 10.7794], [106.5881, 10.7817], [106.5883, 10.7842], [106.5892, 10.7873], [106.5865, 10.7882], [106.5868, 10.7898], [106.5856, 10.7899], [106.5856, 10.7906], [106.5844, 10.7908], [106.5846, 10.7948], [106.5843, 10.7958], [106.5846, 10.7973], [106.5829, 10.7973], [106.5834, 10.8041], [106.5835, 10.8064], [106.5846, 10.8068], [106.5859, 10.8128], [106.5849, 10.8137], [106.5834, 10.8135], [106.5829, 10.8153], [106.5818, 10.8156], [106.5849, 10.8182], [106.5904, 10.8234], [106.5936, 10.8275], [106.5979, 10.8267], [106.6004, 10.8261], [106.6033, 10.8263], [106.6034, 10.8263], [106.6035, 10.8263], [106.6044, 10.8253], [106.6077, 10.8232], [106.6094, 10.8229], [106.6118, 10.8217], [106.6145, 10.8211], [106.616, 10.8195], [106.6137, 10.8183], [106.6112, 10.8166], [106.6076, 10.8131], [106.61, 10.8117], [106.615, 10.8093], [106.6099, 10.8032], [106.6137, 10.7967], [106.6142, 10.7957], [106.6156, 10.7927], [106.6188, 10.7846], [106.6201, 10.7805], [106.6213, 10.7771], [106.6216, 10.7737], [106.622, 10.7713], [106.6237, 10.7642], [106.6241, 10.7625], [106.6253, 10.7575], [106.6244, 10.756], [106.6242, 10.7539], [106.6238, 10.7457]]]}}, {"type": "Feature", "properties": {"name": "Quận Bình Thạnh", "ward_count": 5}, "geometry": {"type": "Polygon", "coordinates": [[[106.7124, 10.7878], [106.7096, 10.7874], [106.7086, 10.7878], [106.7075, 10.7893], [106.707, 10.7908], [106.7063, 10.7916], [106.7056, 10.7921], [106.7019, 10.7931], [106.6996, 10.7935], [106.6967, 10.7936], [106.6949, 10.7935], [106.6944, 10.7948], [106.6926, 10.7949], [106.6916, 10.7955], [106.692, 10.7961], [106.6918, 10.8003], [106.6925, 10.8005], [106.6921, 10.8023], [106.6907, 10.8024], [106.6909, 10.8033], [106.6879, 10.8037], [106.6885, 10.8056], [106.687, 10.8062], [106.6871, 10.8053], [106.6844, 10.8064], [106.6839, 10.8071], [106.6842, 10.8089], [106.684, 10.81], [106.6842, 10.8108], [106.6852, 10.8115], [106.6852, 10.814], [106.687, 10.8145], [106.6888, 10.8155], [106.6895, 10.8151], [106.6907, 10.8156], [106.6922, 10.817], [106.6935, 10.8177], [106.6928, 10.8183], [106.6926, 10.8194], [106.6944, 10.8199], [106.6935, 10.822], [106.6935, 10.8222], [106.6986, 10.8234], [106.6991, 10.8257], [106.7011, 10.8272], [106.7006, 10.8283], [106.6997, 10.8286], [106.6999, 10.8298], [106.6995, 10.8304], [106.6985, 10.8304], [106.6952, 10.8309], [106.6964, 10.8331], [106.6988, 10.8341], [106.7004, 10.8352], [106.701, 10.8377], [106.7028, 10.8391], [106.7042, 10.8384], [106.7062, 10.8369], [106.7072, 10.8357], [106.7082, 10.8339], [106.7086, 10.8317], [106.7089, 10.8266], [106.7099, 10.8237], [106.7114, 10.8224], [106.7136, 10.821], [106.7139, 10.8208], [106.7183, 10.8204], [106.7196, 10.8204], [106.7215, 10.8207], [106.7248, 10.8217], [106.7277, 10.823], [106.7295, 10.824], [106.7312, 10.8255], [106.7331, 10.8276], [106.7361, 10.8325], [106.7377, 10.8345], [106.7387, 10.8352], [106.7399, 10.8356], [106.7409, 10.8356], [106.7447, 10.8346], [106.7472, 10.8336], [106.7495, 10.8319], [106.7506, 10.83], [106.7514, 10.8285], [106.7515, 10.8272], [106.7515, 10.8155], [106.7512, 10.813], [106.7497, 10.811], [106.7484, 10.8097], [106.7464, 10.8087], [106.7433, 10.8084], [106.7401, 10.8092], [106.7376, 10.8109], [106.7363, 10.8131], [106.7352, 10.8167], [106.7341, 10.8185], [106.7329, 10.8194], [106.7316, 10.8198], [106.7293, 10.8192], [106.726, 10.8171], [106.7237, 10.8143], [106.7226, 10.8119], [106.7222, 10.8098], [106.7231, 10.8062], [106.7232, 10.806], [106.7265, 10.8014], [106.7271, 10.8002], [106.7271, 10.7985], [106.7275, 10.7981], [106.7271, 10.7953], [106.7262, 10.7922], [106.7241, 10.789], [106.7232, 10.7881], [106.7226, 10.7881], [106.7203, 10.7865], [106.7174, 10.7856], [106.7153, 10.7852], [106.7135, 10.7871], [106.7124, 10.7878]]]}}, {"type": "Feature", "properties": {"name": "Quận Gò Vấp", "ward_count": 6}, "geometry": {"type": "Polygon", "coordinates": [[[106.6732, 10.8223], [106.6753, 10.8237], [106.6767, 10.8241], [106.6783, 10.8251], [106.6786, 10.8261], [106.6778, 10.8269], [106.6775, 10.827], [106.6749, 10.8263], [106.6742, 10.8263], [106.6732, 10.8279], [106.6704, 10.8272], [106.6681, 10.8283], [106.6661, 10.8284], [106.664, 10.8306], [106.6636, 10.8307], [106.6619, 10.8314], [106.6596, 10.8329], [106.6574, 10.8349], [106.6571, 10.8354], [106.6556, 10.836], [106.6521, 10.8366], [106.6467, 10.8367], [106.6463, 10.8374], [106.6426, 10.8282], [106.6406, 10.8293], [106.6381, 10.83], [106.6339, 10.8324], [106.6324, 10.833], [106.6328, 10.8347], [106.632, 10.8364], [106.6322, 10.8374], [106.6329, 10.838], [106.6323, 10.8393], [106.6324, 10.8405], [106.6337, 10.8415], [106.6336, 10.8435], [106.6339, 10.8449], [106.6352, 10.8453], [106.64, 10.8491], [106.6414, 10.8497], [106.6427, 10.8508], [106.643, 10.8522], [106.6444, 10.8531], [106.6447, 10.8539], [106.6464, 10.8546], [106.6465, 10.8559], [106.6471, 10.8579], [106.6487, 10.8588], [106.65, 10.8591], [106.6509, 10.8598], [106.6523, 10.8607], [106.6532, 10.8604], [106.654, 10.8592], [106.6553, 10.8589], [106.6571, 10.8577], [106.6582, 10.8579], [106.6593, 10.8576], [106.6613, 10.8558], [106.6628, 10.8555], [106.665, 10.8559], [106.6656, 10.8564], [106.667, 10.856], [106.668, 10.8575], [106.6692, 10.858], [106.6704, 10.8594], [106.6721, 10.8604], [106.6735, 10.8601], [106.6743, 10.8583], [106.6752, 10.8568], [106.675, 10.8552], [106.6758, 10.853], [106.6759, 10.852], [106.6788, 10.851], [106.6796, 10.8508], [106.6822, 10.8516], [106.6841, 10.8514], [106.6844, 10.8507], [106.6829, 10.8481], [106.6835, 10.8471], [106.6845, 10.847], [106.6868, 10.8472], [106.6879, 10.8465], [106.6888, 10.8449], [106.6892, 10.8435], [106.6887, 10.8404], [106.689, 10.8387], [106.6905, 10.8365], [106.6911, 10.8346], [106.6909, 10.8331], [106.6924, 10.8305], [106.6931, 10.83], [106.6944, 10.8302], [106.6952, 10.8309], [106.6985, 10.8304], [106.6995, 10.8304], [106.6999, 10.8298], [106.6997, 10.8286], [106.7006, 10.8283], [106.7011, 10.8272], [106.6991, 10.8257], [106.6986, 10.8234], [106.6935, 10.8222], [106.6935, 10.822], [106.6944, 10.8199], [106.6926, 10.8194], [106.6928, 10.8183], [106.6935, 10.8177], [106.6922, 10.817], [106.6907, 10.8156], [106.6895, 10.8151], [106.6888, 10.8155], [106.687, 10.8145], [106.6852, 10.814], [106.6852, 10.8115], [106.6842, 10.8108], [106.684, 10.81], [106.6821, 10.8108], [106.6807, 10.811], [106.6804, 10.8119], [106.6786, 10.8121], [106.6782, 10.8113], [106.6769, 10.8122], [106.676, 10.8112], [106.6728, 10.8141], [106.6757, 10.8153], [106.6757, 10.8163], [106.6742, 10.818], [106.6748, 10.8183], [106.6732, 10.8223]]]}}, {"type": "Feature", "properties": {"name": "Quận 4", "ward_count": 3}, "geometry": {"type": "Polygon", "coordinates": [[[106.7031, 10.7523], [106.6927, 10.7524], [106.6903, 10.752], [106.6866, 10.7519], [106.687, 10.7533], [106.6895, 10.7558], [106.6924, 10.7581], [106.6953, 10.7599], [106.6969, 10.7617], [106.6982, 10.7634], [106.6993, 10.7641], [106.7012, 10.7653], [106.7031, 10.7676], [106.7053, 10.7689], [106.7085, 10.7695], [106.7101, 10.7661], [106.7116, 10.7645], [106.7131, 10.7633], [106.7169, 10.7613], [106.7215, 10.7594], [106.7221, 10.7593], [106.7211, 10.7566], [106.7202, 10.755], [106.7183, 10.7531], [106.7158, 10.7525], [106.7099, 10.7524], [106.7051, 10.7524], [106.7031, 10.7523]]]}}, {"type": "Feature", "properties": {"name": "Quận 3", "ward_count": 4}, "geometry": {"type": "MultiPolygon", "coordinates": [[[[106.6412, 10.7671], [106.6392, 10.7684], [106.6376, 10.769], [106.6416, 10.7725], [106.6421, 10.7721], [106.6443, 10.775], [106.6455, 10.7752], [106.6477, 10.7752], [106.648, 10.7748], [106.6509, 10.7705], [106.6521, 10.769], [106.6464, 10.7653], [106.6412, 10.7671]]], [[[106.6845, 10.7684], [106.6817, 10.7654], [106.6744, 10.7677], [106.6758, 10.7696], [106.6775, 10.7715], [106.6827, 10.7758], [106.6817, 10.7778], [106.6646, 10.7869], [106.6643, 10.7871], [106.6652, 10.7887], [106.6667, 10.7896], [106.6682, 10.7888], [106.6706, 10.788], [106.671, 10.7893], [106.6763, 10.7905], [106.6793, 10.791], [106.681, 10.7914], [106.6816, 10.7911], [106.682, 10.7916], [106.6832, 10.7923], [106.6855, 10.7922], [106.6861, 10.7925], [106.6948, 10.7856], [106.6981, 10.7829], [106.695, 10.7796], [106.6894, 10.7736], [106.6845, 10.7684]]]]}}, {"type": "Feature", "properties": {"name": "Quận 10", "ward_count": 3}, "geometry": {"type": "Polygon", "coordinates": [[[106.6775, 10.7715], [106.6758, 10.7696], [106.6744, 10.7677], [106.6817, 10.7654], [106.6812, 10.7653], [106.675, 10.7613], [106.6747, 10.7611], [106.6689, 10.7599], [106.6656, 10.7592], [106.6615, 10.7584], [106.66, 10.7638], [106.656, 10.7782], [106.6564, 10.7781], [106.6602, 10.7822], [106.6646, 10.7869], [106.6817, 10.7778], [106.6827, 10.7758], [106.6775, 10.7715]]]}}, {"type": "Feature", "properties": {"name": "Quận 5", "ward_count": 3}, "geometry": {"type": "Polygon", "coordinates": [[[106.6649, 10.7501], [106.6588, 10.7481], [106.6569, 10.7473], [106.655, 10.7461], [106.6539, 10.7486], [106.6533, 10.7516], [106.6505, 10.7514], [106.6507, 10.7534], [106.6511, 10.7563], [106.6615, 10.7584], [106.6656, 10.7592], [106.6689, 10.7599], [106.6747, 10.7611], [106.675, 10.7613], [106.6812, 10.7653], [106.6817, 10.7654], [106.6851, 10.7566], [106.6864, 10.7547], [106.687, 10.7533], [106.6866, 10.7519], [106.6845, 10.7509], [106.681, 10.752], [106.6773, 10.7515], [106.6761, 10.7495], [106.6749, 10.7488], [106.6737, 10.7487], [106.6713, 10.7493], [106.6698, 10.7495], [106.667, 10.7501], [106.6649, 10.7501]]]}}, {"type": "Feature", "properties": {"name": "Quận 8", "ward_count": 3}, "geometry": {"type": "Polygon", "coordinates": [[[106.597, 10.6975], [106.5974, 10.6997], [106.5973, 10.7016], [106.6006, 10.7032], [106.6023, 10.7038], [106.6031, 10.704], [106.6054, 10.7046], [106.6084, 10.7061], [106.6088, 10.7063], [106.6084, 10.7067], [106.6072, 10.7084], [106.6038, 10.711], [106.6059, 10.7118], [106.616, 10.7143], [106.6155, 10.715], [106.6175, 10.7153], [106.619, 10.7162], [106.6192, 10.7178], [106.6202, 10.7266], [106.6277, 10.73], [106.6303, 10.7313], [106.6317, 10.7322], [106.6344, 10.7335], [106.6352, 10.7342], [106.6462, 10.741], [106.655, 10.7461], [106.6569, 10.7473], [106.6588, 10.7481], [106.6649, 10.7501], [106.667, 10.7501], [106.6698, 10.7495], [106.6713, 10.7493], [106.6737, 10.7487], [106.6749, 10.7488], [106.6761, 10.7495], [106.6773, 10.7515], [106.681, 10.752], [106.6845, 10.7509], [106.6866, 10.7519], [106.6903, 10.752], [106.6904, 10.7499], [106.6919, 10.748], [106.6927, 10.7464], [106.6928, 10.7441], [106.6918, 10.7424], [106.6921, 10.7414], [106.69, 10.741], [106.687, 10.7401], [106.6848, 10.7398], [106.683, 10.7394], [106.683, 10.7385], [106.6821, 10.7367], [106.6822, 10.7347], [106.6781, 10.7354], [106.6768, 10.7351], [106.6748, 10.736], [106.6739, 10.7375], [106.666, 10.7324], [106.6657, 10.7342], [106.6633, 10.7339], [106.6595, 10.7326], [106.658, 10.7325], [106.6561, 10.7316], [106.6542, 10.7316], [106.6493, 10.7304], [106.6502, 10.7284], [106.6487, 10.7284], [106.648, 10.7277], [106.6468, 10.7288], [106.6449, 10.7269], [106.6444, 10.728], [106.6422, 10.7277], [106.6357, 10.715], [106.6313, 10.7061], [106.629, 10.7015], [106.6254, 10.6945], [106.6261, 10.6937], [106.6242, 10.6922], [106.6237, 10.693], [106.6224, 10.6955], [106.6219, 10.6975], [106.5945, 10.6898], [106.597, 10.6975]]]}}, {"type": "Feature", "properties": {"name": "Huyện Nhà Bè", "ward_count": 2}, "geometry": {"type": "Polygon", "coordinates": [[[106.7788, 10.604], [106.7802, 10.6018], [106.7825, 10.5966], [106.7836, 10.5922], [106.7836, 10.5855], [106.7829, 10.583], [106.7817, 10.5805], [106.7804, 10.579], [106.7776, 10.5773], [106.7749, 10.5765], [106.7726, 10.5764], [106.7708, 10.5767], [106.7671, 10.5783], [106.76, 10.5806], [106.7573, 10.5811], [106.7539, 10.5809], [106.7518, 10.5804], [106.7498, 10.5795], [106.7483, 10.5783], [106.7457, 10.5756], [106.7426, 10.5786], [106.7414, 10.5791], [106.7389, 10.5787], [106.7379, 10.5782], [106.7366, 10.5769], [106.7357, 10.5771], [106.7348, 10.578], [106.735, 10.5789], [106.7365, 10.5796], [106.7392, 10.5818], [106.7396, 10.5834], [106.7386, 10.5855], [106.7375, 10.5862], [106.7354, 10.5861], [106.7347, 10.585], [106.735, 10.5843], [106.7347, 10.5821], [106.7334, 10.5812], [106.7328, 10.5803], [106.7313, 10.5797], [106.7286, 10.58], [106.7266, 10.5842], [106.7246, 10.586], [106.7242, 10.5871], [106.7232, 10.5882], [106.7237, 10.5904], [106.7238, 10.5927], [106.7231, 10.594], [106.7215, 10.5948], [106.7204, 10.5957], [106.7202, 10.5969], [106.7218, 10.5991], [106.7215, 10.6004], [106.7202, 10.6017], [106.7195, 10.603], [106.7189, 10.6061], [106.7223, 10.6073], [106.7223, 10.6084], [106.723, 10.6105], [106.7239, 10.612], [106.7255, 10.6112], [106.7268, 10.6112], [106.7275, 10.6098], [106.7286, 10.6087], [106.7292, 10.6092], [106.7313, 10.6088], [106.7328, 10.6099], [106.7316, 10.6121], [106.7291, 10.612], [106.7286, 10.6127], [106.7275, 10.6159], [106.7281, 10.6167], [106.729, 10.6162], [106.7299, 10.6176], [106.7301, 10.6188], [106.7298, 10.6199], [106.7302, 10.6208], [106.7311, 10.6214], [106.732, 10.6229], [106.7319, 10.6236], [106.7289, 10.624], [106.7283, 10.6248], [106.7291, 10.6282], [106.7303, 10.6286], [106.7312, 10.6279], [106.7321, 10.6278], [106.7333, 10.6288], [106.7323, 10.6313], [106.7312, 10.6332], [106.7314, 10.6344], [106.73, 10.6362], [106.7259, 10.6382], [106.7234, 10.6419], [106.7232, 10.6446], [106.7219, 10.6459], [106.7192, 10.6455], [106.718, 10.6461], [106.7159, 10.648], [106.7127, 10.6501], [106.7111, 10.6504], [106.7085, 10.6498], [106.7055, 10.6508], [106.7042, 10.6529], [106.702, 10.6533], [106.7007, 10.654], [106.6997, 10.6536], [106.6974, 10.6518], [106.6965, 10.65], [106.6957, 10.6495], [106.694, 10.6493], [106.6917, 10.6485], [106.6909, 10.6488], [106.6903, 10.6512], [106.689, 10.6528], [106.6876, 10.6557], [106.6867, 10.6563], [106.6858, 10.6562], [106.685, 10.6603], [106.6842, 10.6613], [106.683, 10.6619], [106.6804, 10.6626], [106.6796, 10.6631], [106.6787, 10.6648], [106.6784, 10.6689], [106.6787, 10.6717], [106.6808, 10.6754], [106.6814, 10.6771], [106.6812, 10.679], [106.6807, 10.6802], [106.6793, 10.6822], [106.677, 10.6844], [106.676, 10.6861], [106.6757, 10.6886], [106.675, 10.6901], [106.6733, 10.6922], [106.6738, 10.6956], [106.6738, 10.6982], [106.6744, 10.7022], [106.6734, 10.7043], [106.6747, 10.7058], [106.6761, 10.7081], [106.6768, 10.7097], [106.6779, 10.7096], [106.6785, 10.7113], [106.6808, 10.7145], [106.6839, 10.7132], [106.6858, 10.7116], [106.6884, 10.7121], [106.6887, 10.7126], [106.6884, 10.7153], [106.6892, 10.7177], [106.6894, 10.719], [106.689, 10.7215], [106.6902, 10.7255], [106.6939, 10.7252], [106.6984, 10.7242], [106.701, 10.7246], [106.7031, 10.7252], [106.7048, 10.7253], [106.7063, 10.7249], [106.7073, 10.7239], [106.7079, 10.7205], [106.7089, 10.7198], [106.7112, 10.7205], [106.7128, 10.7205], [106.7166, 10.7192], [106.7182, 10.7191], [106.7192, 10.7199], [106.7198, 10.7214], [106.7209, 10.7222], [106.7224, 10.7221], [106.7238, 10.7217], [106.7247, 10.7208], [106.725, 10.7197], [106.7246, 10.7183], [106.7235, 10.7166], [106.7232, 10.7148], [106.7237, 10.7137], [106.7252, 10.7118], [106.7256, 10.7102], [106.7255, 10.7085], [106.7248, 10.7058], [106.725, 10.7046], [106.7259, 10.7021], [106.7262, 10.7002], [106.7267, 10.6993], [106.7283, 10.6985], [106.7311, 10.6978], [106.7329, 10.698], [106.7342, 10.6993], [106.7346, 10.7014], [106.7353, 10.7029], [106.7366, 10.7035], [106.7378, 10.7036], [106.7445, 10.7032], [106.7458, 10.7033], [106.7522, 10.705], [106.7533, 10.7006], [106.755, 10.6971], [106.7563, 10.6948], [106.7579, 10.6929], [106.7607, 10.69], [106.7635, 10.6878], [106.7655, 10.686], [106.7732, 10.6768], [106.7765, 10.6745], [106.7724, 10.6681], [106.771, 10.6665], [106.7694, 10.6655], [106.7669, 10.665], [106.7646, 10.6654], [106.7619, 10.6664], [106.7548, 10.6688], [106.7503, 10.6705], [106.7485, 10.6709], [106.7457, 10.671], [106.7436, 10.6704], [106.7423, 10.6697], [106.7402, 10.6681], [106.7389, 10.6667], [106.7384, 10.6654], [106.7384, 10.663], [106.7396, 10.6591], [106.7407, 10.6572], [106.743, 10.6544], [106.7466, 10.6513], [106.7495, 10.6499], [106.7593, 10.6463], [106.7638, 10.6442], [106.7672, 10.642], [106.7689, 10.6401], [106.7709, 10.6369], [106.7713, 10.6355], [106.7716, 10.6332], [106.771, 10.6279], [106.7705, 10.624], [106.7705, 10.6195], [106.7709, 10.6166], [106.772, 10.6137], [106.7758, 10.6079], [106.7782, 10.6049], [106.7788, 10.604]]]}}]}